{"epoch":1784799577,"count":18318,"objects":[{"id":"69394","name":"QIANFAN-177","type":"PAYLOAD","l1":"1 69394U 26124N   26203.53239470 -.01973299  00000-0 -18955+1 0  9992","l2":"2 69394  89.0001 358.0688 0011553  61.0423 299.1904 13.84179526  6804"},{"id":"69395","name":"QIANFAN-178","type":"PAYLOAD","l1":"1 69395U 26124P   26203.51238843 -.01988316  00000-0 -18073+1 0  9991","l2":"2 69395  88.9985 358.0663 0004862  51.8786 308.2824 13.87478736  6802"},{"id":"69396","name":"QIANFAN-179","type":"PAYLOAD","l1":"1 69396U 26124Q   26203.57141614  .00000050  00000-0  29599-4 0  9993","l2":"2 69396  89.0007 358.0569 0007530  56.3675 303.8216 13.90248074  6818"},{"id":"69397","name":"QIANFAN-180","type":"PAYLOAD","l1":"1 69397U 26124R   26203.51178868 -.01952694  00000-0 -18603+1 0  9992","l2":"2 69397  89.0000 358.0666 0009228  64.4802 295.7322 13.84633475  6800"},{"id":"69398","name":"QIANFAN-181","type":"PAYLOAD","l1":"1 69398U 26124S   26203.44586241 -.02026680  00000-0 -22683+1 0  9994","l2":"2 69398  89.0004 358.1292 0001293 144.1927 215.9325 13.75195930  6760"},{"id":"69399","name":"QIANFAN-182","type":"PAYLOAD","l1":"1 69399U 26124T   26203.38728163 -.00000016  00000-0 -28582-4 0  9990","l2":"2 69399  89.0000 358.1214 0009332  54.9747 305.2295 13.79285171  6750"},{"id":"69401","name":"QIANFAN-183","type":"PAYLOAD","l1":"1 69401U 26125A   26203.88565739 -.01926935  00000-0 -19342+1 0  9996","l2":"2 69401  88.9925 276.4657 0024224  62.0495 298.3121 13.81378045  6721"},{"id":"69402","name":"QIANFAN-184","type":"PAYLOAD","l1":"1 69402U 26125B   26203.88937730 -.01874746  00000-0 -20082+1 0  9996","l2":"2 69402  88.9937 276.4672 0019897  54.9112 305.3916 13.78114570  6726"},{"id":"69403","name":"QIANFAN-185","type":"PAYLOAD","l1":"1 69403U 26125C   26203.74401973 -.01804497  00000-0 -15152+1 0  9995","l2":"2 69403  88.9939 276.4631 0020479  57.5111 302.8039 13.92267349  6716"},{"id":"69404","name":"QIANFAN-186","type":"PAYLOAD","l1":"1 69404U 26125D   26203.87541593 -.01794447  00000-0 -18964+1 0  9990","l2":"2 69404  88.9941 276.4649 0021645  54.6756 305.6431 13.78712938  6729"},{"id":"69405","name":"QIANFAN-187","type":"PAYLOAD","l1":"1 69405U 26125E   26203.84122569 -.01618249  00000-0 -15574+1 0  9995","l2":"2 69405  88.9938 276.4581 0020342  72.8739 287.4656 13.83861807  6729"},{"id":"69406","name":"QIANFAN-188","type":"PAYLOAD","l1":"1 69406U 26125F   26203.65891500 -.02092189  00000-0 -20045+1 0  9992","l2":"2 69406  88.9932 276.4680 0022549  64.3983 295.9514 13.84487842  6701"},{"id":"69407","name":"QIANFAN-189","type":"PAYLOAD","l1":"1 69407U 26125G   26203.89470012 -.01855398  00000-0 -18907+1 0  9992","l2":"2 69407  88.9930 276.4481 0025044  63.3392 297.0336 13.80995640  6728"},{"id":"69408","name":"QIANFAN-190","type":"PAYLOAD","l1":"1 69408U 26125H   26203.88302046 -.01913688  00000-0 -18862+1 0  9990","l2":"2 69408  88.9931 276.4469 0025435  62.3437 298.0309 13.82418575  6730"},{"id":"69409","name":"QIANFAN-191","type":"PAYLOAD","l1":"1 69409U 26125J   26203.87460083 -.02002119  00000-0 -20800+1 0  9990","l2":"2 69409  88.9936 276.4452 0023210  60.2758 300.0715 13.79497089  6738"},{"id":"69410","name":"QIANFAN-192","type":"PAYLOAD","l1":"1 69410U 26125K   26203.86029182 -.02024253  00000-0 -20578+1 0  9997","l2":"2 69410  88.9938 276.4438 0026494  54.1820 306.1805 13.80797969  6734"}]}